[{"id":"1","name":"Aceh Barat","type":"Kabupaten","zip":"23681","prov_id":"21"},{"id":"2","name":"Aceh Barat Daya","type":"Kabupaten","zip":"23764","prov_id":"21"},{"id":"3","name":"Aceh Besar","type":"Kabupaten","zip":"23951","prov_id":"21"},{"id":"4","name":"Aceh Jaya","type":"Kabupaten","zip":"23654","prov_id":"21"},{"id":"5","name":"Aceh Selatan","type":"Kabupaten","zip":"23719","prov_id":"21"},{"id":"6","name":"Aceh Singkil","type":"Kabupaten","zip":"24785","prov_id":"21"},{"id":"7","name":"Aceh Tamiang","type":"Kabupaten","zip":"24476","prov_id":"21"},{"id":"8","name":"Aceh Tengah","type":"Kabupaten","zip":"24511","prov_id":"21"},{"id":"9","name":"Aceh Tenggara","type":"Kabupaten","zip":"24611","prov_id":"21"},{"id":"10","name":"Aceh Timur","type":"Kabupaten","zip":"24454","prov_id":"21"},{"id":"11","name":"Aceh Utara","type":"Kabupaten","zip":"24382","prov_id":"21"},{"id":"12","name":"Agam","type":"Kabupaten","zip":"26411","prov_id":"32"},{"id":"13","name":"Alor","type":"Kabupaten","zip":"85811","prov_id":"23"},{"id":"14","name":"Ambon","type":"Kota","zip":"97222","prov_id":"19"},{"id":"15","name":"Asahan","type":"Kabupaten","zip":"21214","prov_id":"34"},{"id":"16","name":"Asmat","type":"Kabupaten","zip":"99777","prov_id":"24"},{"id":"17","name":"Badung","type":"Kabupaten","zip":"80351","prov_id":"1"},{"id":"18","name":"Balangan","type":"Kabupaten","zip":"71611","prov_id":"13"},{"id":"19","name":"Balikpapan","type":"Kota","zip":"76111","prov_id":"15"},{"id":"20","name":"Banda Aceh","type":"Kota","zip":"23238","prov_id":"21"},{"id":"21","name":"Bandar Lampung","type":"Kota","zip":"35139","prov_id":"18"},{"id":"22","name":"Bandung","type":"Kabupaten","zip":"40311","prov_id":"9"},{"id":"23","name":"Bandung","type":"Kota","zip":"40111","prov_id":"9"},{"id":"24","name":"Bandung Barat","type":"Kabupaten","zip":"40721","prov_id":"9"},{"id":"25","name":"Banggai","type":"Kabupaten","zip":"94711","prov_id":"29"},{"id":"26","name":"Banggai Kepulauan","type":"Kabupaten","zip":"94881","prov_id":"29"},{"id":"27","name":"Bangka","type":"Kabupaten","zip":"33212","prov_id":"2"},{"id":"28","name":"Bangka Barat","type":"Kabupaten","zip":"33315","prov_id":"2"},{"id":"29","name":"Bangka Selatan","type":"Kabupaten","zip":"33719","prov_id":"2"},{"id":"30","name":"Bangka Tengah","type":"Kabupaten","zip":"33613","prov_id":"2"},{"id":"31","name":"Bangkalan","type":"Kabupaten","zip":"69118","prov_id":"11"},{"id":"32","name":"Bangli","type":"Kabupaten","zip":"80619","prov_id":"1"},{"id":"33","name":"Banjar","type":"Kabupaten","zip":"70619","prov_id":"13"},{"id":"34","name":"Banjar","type":"Kota","zip":"46311","prov_id":"9"},{"id":"35","name":"Banjarbaru","type":"Kota","zip":"70712","prov_id":"13"},{"id":"36","name":"Banjarmasin","type":"Kota","zip":"70117","prov_id":"13"},{"id":"37","name":"Banjarnegara","type":"Kabupaten","zip":"53419","prov_id":"10"},{"id":"38","name":"Bantaeng","type":"Kabupaten","zip":"92411","prov_id":"28"},{"id":"39","name":"Bantul","type":"Kabupaten","zip":"55715","prov_id":"5"},{"id":"40","name":"Banyuasin","type":"Kabupaten","zip":"30911","prov_id":"33"},{"id":"41","name":"Banyumas","type":"Kabupaten","zip":"53114","prov_id":"10"},{"id":"42","name":"Banyuwangi","type":"Kabupaten","zip":"68416","prov_id":"11"},{"id":"43","name":"Barito Kuala","type":"Kabupaten","zip":"70511","prov_id":"13"},{"id":"44","name":"Barito Selatan","type":"Kabupaten","zip":"73711","prov_id":"14"},{"id":"45","name":"Barito Timur","type":"Kabupaten","zip":"73671","prov_id":"14"},{"id":"46","name":"Barito Utara","type":"Kabupaten","zip":"73881","prov_id":"14"},{"id":"47","name":"Barru","type":"Kabupaten","zip":"90719","prov_id":"28"},{"id":"48","name":"Batam","type":"Kota","zip":"29413","prov_id":"17"},{"id":"49","name":"Batang","type":"Kabupaten","zip":"51211","prov_id":"10"},{"id":"50","name":"Batang Hari","type":"Kabupaten","zip":"36613","prov_id":"8"},{"id":"51","name":"Batu","type":"Kota","zip":"65311","prov_id":"11"},{"id":"52","name":"Batu Bara","type":"Kabupaten","zip":"21655","prov_id":"34"},{"id":"53","name":"Bau-Bau","type":"Kota","zip":"93719","prov_id":"30"},{"id":"54","name":"Bekasi","type":"Kabupaten","zip":"17837","prov_id":"9"},{"id":"55","name":"Bekasi","type":"Kota","zip":"17121","prov_id":"9"},{"id":"56","name":"Belitung","type":"Kabupaten","zip":"33419","prov_id":"2"},{"id":"57","name":"Belitung Timur","type":"Kabupaten","zip":"33519","prov_id":"2"},{"id":"58","name":"Belu","type":"Kabupaten","zip":"85711","prov_id":"23"},{"id":"59","name":"Bener Meriah","type":"Kabupaten","zip":"24581","prov_id":"21"},{"id":"60","name":"Bengkalis","type":"Kabupaten","zip":"28719","prov_id":"26"},{"id":"61","name":"Bengkayang","type":"Kabupaten","zip":"79213","prov_id":"12"},{"id":"62","name":"Bengkulu","type":"Kota","zip":"38229","prov_id":"4"},{"id":"63","name":"Bengkulu Selatan","type":"Kabupaten","zip":"38519","prov_id":"4"},{"id":"64","name":"Bengkulu Tengah","type":"Kabupaten","zip":"38319","prov_id":"4"},{"id":"65","name":"Bengkulu Utara","type":"Kabupaten","zip":"38619","prov_id":"4"},{"id":"66","name":"Berau","type":"Kabupaten","zip":"77311","prov_id":"15"},{"id":"67","name":"Biak Numfor","type":"Kabupaten","zip":"98119","prov_id":"24"},{"id":"68","name":"Bima","type":"Kabupaten","zip":"84171","prov_id":"22"},{"id":"69","name":"Bima","type":"Kota","zip":"84139","prov_id":"22"},{"id":"70","name":"Binjai","type":"Kota","zip":"20712","prov_id":"34"},{"id":"71","name":"Bintan","type":"Kabupaten","zip":"29135","prov_id":"17"},{"id":"72","name":"Bireuen","type":"Kabupaten","zip":"24219","prov_id":"21"},{"id":"73","name":"Bitung","type":"Kota","zip":"95512","prov_id":"31"},{"id":"74","name":"Blitar","type":"Kabupaten","zip":"66171","prov_id":"11"},{"id":"75","name":"Blitar","type":"Kota","zip":"66124","prov_id":"11"},{"id":"76","name":"Blora","type":"Kabupaten","zip":"58219","prov_id":"10"},{"id":"77","name":"Boalemo","type":"Kabupaten","zip":"96319","prov_id":"7"},{"id":"78","name":"Bogor","type":"Kabupaten","zip":"16911","prov_id":"9"},{"id":"79","name":"Bogor","type":"Kota","zip":"16119","prov_id":"9"},{"id":"80","name":"Bojonegoro","type":"Kabupaten","zip":"62119","prov_id":"11"},{"id":"81","name":"Bolaang Mongondow (Bolmong)","type":"Kabupaten","zip":"95755","prov_id":"31"},{"id":"82","name":"Bolaang Mongondow Selatan","type":"Kabupaten","zip":"95774","prov_id":"31"},{"id":"83","name":"Bolaang Mongondow Timur","type":"Kabupaten","zip":"95783","prov_id":"31"},{"id":"84","name":"Bolaang Mongondow Utara","type":"Kabupaten","zip":"95765","prov_id":"31"},{"id":"85","name":"Bombana","type":"Kabupaten","zip":"93771","prov_id":"30"},{"id":"86","name":"Bondowoso","type":"Kabupaten","zip":"68219","prov_id":"11"},{"id":"87","name":"Bone","type":"Kabupaten","zip":"92713","prov_id":"28"},{"id":"88","name":"Bone Bolango","type":"Kabupaten","zip":"96511","prov_id":"7"},{"id":"89","name":"Bontang","type":"Kota","zip":"75313","prov_id":"15"},{"id":"90","name":"Boven Digoel","type":"Kabupaten","zip":"99662","prov_id":"24"},{"id":"91","name":"Boyolali","type":"Kabupaten","zip":"57312","prov_id":"10"},{"id":"92","name":"Brebes","type":"Kabupaten","zip":"52212","prov_id":"10"},{"id":"93","name":"Bukittinggi","type":"Kota","zip":"26115","prov_id":"32"},{"id":"94","name":"Buleleng","type":"Kabupaten","zip":"81111","prov_id":"1"},{"id":"95","name":"Bulukumba","type":"Kabupaten","zip":"92511","prov_id":"28"},{"id":"96","name":"Bulungan (Bulongan)","type":"Kabupaten","zip":"77211","prov_id":"16"},{"id":"97","name":"Bungo","type":"Kabupaten","zip":"37216","prov_id":"8"},{"id":"98","name":"Buol","type":"Kabupaten","zip":"94564","prov_id":"29"},{"id":"99","name":"Buru","type":"Kabupaten","zip":"97371","prov_id":"19"},{"id":"100","name":"Buru Selatan","type":"Kabupaten","zip":"97351","prov_id":"19"},{"id":"101","name":"Buton","type":"Kabupaten","zip":"93754","prov_id":"30"},{"id":"102","name":"Buton Utara","type":"Kabupaten","zip":"93745","prov_id":"30"},{"id":"103","name":"Ciamis","type":"Kabupaten","zip":"46211","prov_id":"9"},{"id":"104","name":"Cianjur","type":"Kabupaten","zip":"43217","prov_id":"9"},{"id":"105","name":"Cilacap","type":"Kabupaten","zip":"53211","prov_id":"10"},{"id":"106","name":"Cilegon","type":"Kota","zip":"42417","prov_id":"3"},{"id":"107","name":"Cimahi","type":"Kota","zip":"40512","prov_id":"9"},{"id":"108","name":"Cirebon","type":"Kabupaten","zip":"45611","prov_id":"9"},{"id":"109","name":"Cirebon","type":"Kota","zip":"45116","prov_id":"9"},{"id":"110","name":"Dairi","type":"Kabupaten","zip":"22211","prov_id":"34"},{"id":"111","name":"Deiyai (Deliyai)","type":"Kabupaten","zip":"98784","prov_id":"24"},{"id":"112","name":"Deli Serdang","type":"Kabupaten","zip":"20511","prov_id":"34"},{"id":"113","name":"Demak","type":"Kabupaten","zip":"59519","prov_id":"10"},{"id":"114","name":"Denpasar","type":"Kota","zip":"80227","prov_id":"1"},{"id":"115","name":"Depok","type":"Kota","zip":"16416","prov_id":"9"},{"id":"116","name":"Dharmasraya","type":"Kabupaten","zip":"27612","prov_id":"32"},{"id":"117","name":"Dogiyai","type":"Kabupaten","zip":"98866","prov_id":"24"},{"id":"118","name":"Dompu","type":"Kabupaten","zip":"84217","prov_id":"22"},{"id":"119","name":"Donggala","type":"Kabupaten","zip":"94341","prov_id":"29"},{"id":"120","name":"Dumai","type":"Kota","zip":"28811","prov_id":"26"},{"id":"121","name":"Empat Lawang","type":"Kabupaten","zip":"31811","prov_id":"33"},{"id":"122","name":"Ende","type":"Kabupaten","zip":"86351","prov_id":"23"},{"id":"123","name":"Enrekang","type":"Kabupaten","zip":"91719","prov_id":"28"},{"id":"124","name":"Fakfak","type":"Kabupaten","zip":"98651","prov_id":"25"},{"id":"125","name":"Flores Timur","type":"Kabupaten","zip":"86213","prov_id":"23"},{"id":"126","name":"Garut","type":"Kabupaten","zip":"44126","prov_id":"9"},{"id":"127","name":"Gayo Lues","type":"Kabupaten","zip":"24653","prov_id":"21"},{"id":"128","name":"Gianyar","type":"Kabupaten","zip":"80519","prov_id":"1"},{"id":"129","name":"Gorontalo","type":"Kabupaten","zip":"96218","prov_id":"7"},{"id":"130","name":"Gorontalo","type":"Kota","zip":"96115","prov_id":"7"},{"id":"131","name":"Gorontalo Utara","type":"Kabupaten","zip":"96611","prov_id":"7"},{"id":"132","name":"Gowa","type":"Kabupaten","zip":"92111","prov_id":"28"},{"id":"133","name":"Gresik","type":"Kabupaten","zip":"61115","prov_id":"11"},{"id":"134","name":"Grobogan","type":"Kabupaten","zip":"58111","prov_id":"10"},{"id":"135","name":"Gunung Kidul","type":"Kabupaten","zip":"55812","prov_id":"5"},{"id":"136","name":"Gunung Mas","type":"Kabupaten","zip":"74511","prov_id":"14"},{"id":"137","name":"Gunungsitoli","type":"Kota","zip":"22813","prov_id":"34"},{"id":"138","name":"Halmahera Barat","type":"Kabupaten","zip":"97757","prov_id":"20"},{"id":"139","name":"Halmahera Selatan","type":"Kabupaten","zip":"97911","prov_id":"20"},{"id":"140","name":"Halmahera Tengah","type":"Kabupaten","zip":"97853","prov_id":"20"},{"id":"141","name":"Halmahera Timur","type":"Kabupaten","zip":"97862","prov_id":"20"},{"id":"142","name":"Halmahera Utara","type":"Kabupaten","zip":"97762","prov_id":"20"},{"id":"143","name":"Hulu Sungai Selatan","type":"Kabupaten","zip":"71212","prov_id":"13"},{"id":"144","name":"Hulu Sungai Tengah","type":"Kabupaten","zip":"71313","prov_id":"13"},{"id":"145","name":"Hulu Sungai Utara","type":"Kabupaten","zip":"71419","prov_id":"13"},{"id":"146","name":"Humbang Hasundutan","type":"Kabupaten","zip":"22457","prov_id":"34"},{"id":"147","name":"Indragiri Hilir","type":"Kabupaten","zip":"29212","prov_id":"26"},{"id":"148","name":"Indragiri Hulu","type":"Kabupaten","zip":"29319","prov_id":"26"},{"id":"149","name":"Indramayu","type":"Kabupaten","zip":"45214","prov_id":"9"},{"id":"150","name":"Intan Jaya","type":"Kabupaten","zip":"98771","prov_id":"24"},{"id":"151","name":"Jakarta Barat","type":"Kota","zip":"11220","prov_id":"6"},{"id":"152","name":"Jakarta Pusat","type":"Kota","zip":"10540","prov_id":"6"},{"id":"153","name":"Jakarta Selatan","type":"Kota","zip":"12230","prov_id":"6"},{"id":"154","name":"Jakarta Timur","type":"Kota","zip":"13330","prov_id":"6"},{"id":"155","name":"Jakarta Utara","type":"Kota","zip":"14140","prov_id":"6"},{"id":"156","name":"Jambi","type":"Kota","zip":"36111","prov_id":"8"},{"id":"157","name":"Jayapura","type":"Kabupaten","zip":"99352","prov_id":"24"},{"id":"158","name":"Jayapura","type":"Kota","zip":"99114","prov_id":"24"},{"id":"159","name":"Jayawijaya","type":"Kabupaten","zip":"99511","prov_id":"24"},{"id":"160","name":"Jember","type":"Kabupaten","zip":"68113","prov_id":"11"},{"id":"161","name":"Jembrana","type":"Kabupaten","zip":"82251","prov_id":"1"},{"id":"162","name":"Jeneponto","type":"Kabupaten","zip":"92319","prov_id":"28"},{"id":"163","name":"Jepara","type":"Kabupaten","zip":"59419","prov_id":"10"},{"id":"164","name":"Jombang","type":"Kabupaten","zip":"61415","prov_id":"11"},{"id":"165","name":"Kaimana","type":"Kabupaten","zip":"98671","prov_id":"25"},{"id":"166","name":"Kampar","type":"Kabupaten","zip":"28411","prov_id":"26"},{"id":"167","name":"Kapuas","type":"Kabupaten","zip":"73583","prov_id":"14"},{"id":"168","name":"Kapuas Hulu","type":"Kabupaten","zip":"78719","prov_id":"12"},{"id":"169","name":"Karanganyar","type":"Kabupaten","zip":"57718","prov_id":"10"},{"id":"170","name":"Karangasem","type":"Kabupaten","zip":"80819","prov_id":"1"},{"id":"171","name":"Karawang","type":"Kabupaten","zip":"41311","prov_id":"9"},{"id":"172","name":"Karimun","type":"Kabupaten","zip":"29611","prov_id":"17"},{"id":"173","name":"Karo","type":"Kabupaten","zip":"22119","prov_id":"34"},{"id":"174","name":"Katingan","type":"Kabupaten","zip":"74411","prov_id":"14"},{"id":"175","name":"Kaur","type":"Kabupaten","zip":"38911","prov_id":"4"},{"id":"176","name":"Kayong Utara","type":"Kabupaten","zip":"78852","prov_id":"12"},{"id":"177","name":"Kebumen","type":"Kabupaten","zip":"54319","prov_id":"10"},{"id":"178","name":"Kediri","type":"Kabupaten","zip":"64184","prov_id":"11"},{"id":"179","name":"Kediri","type":"Kota","zip":"64125","prov_id":"11"},{"id":"180","name":"Keerom","type":"Kabupaten","zip":"99461","prov_id":"24"},{"id":"181","name":"Kendal","type":"Kabupaten","zip":"51314","prov_id":"10"},{"id":"182","name":"Kendari","type":"Kota","zip":"93126","prov_id":"30"},{"id":"183","name":"Kepahiang","type":"Kabupaten","zip":"39319","prov_id":"4"},{"id":"184","name":"Kepulauan Anambas","type":"Kabupaten","zip":"29991","prov_id":"17"},{"id":"185","name":"Kepulauan Aru","type":"Kabupaten","zip":"97681","prov_id":"19"},{"id":"186","name":"Kepulauan Mentawai","type":"Kabupaten","zip":"25771","prov_id":"32"},{"id":"187","name":"Kepulauan Meranti","type":"Kabupaten","zip":"28791","prov_id":"26"},{"id":"188","name":"Kepulauan Sangihe","type":"Kabupaten","zip":"95819","prov_id":"31"},{"id":"189","name":"Kepulauan Seribu","type":"Kabupaten","zip":"14550","prov_id":"6"},{"id":"190","name":"Kepulauan Siau Tagulandang Biaro (Sitaro)","type":"Kabupaten","zip":"95862","prov_id":"31"},{"id":"191","name":"Kepulauan Sula","type":"Kabupaten","zip":"97995","prov_id":"20"},{"id":"192","name":"Kepulauan Talaud","type":"Kabupaten","zip":"95885","prov_id":"31"},{"id":"193","name":"Kepulauan Yapen (Yapen Waropen)","type":"Kabupaten","zip":"98211","prov_id":"24"},{"id":"194","name":"Kerinci","type":"Kabupaten","zip":"37167","prov_id":"8"},{"id":"195","name":"Ketapang","type":"Kabupaten","zip":"78874","prov_id":"12"},{"id":"196","name":"Klaten","type":"Kabupaten","zip":"57411","prov_id":"10"},{"id":"197","name":"Klungkung","type":"Kabupaten","zip":"80719","prov_id":"1"},{"id":"198","name":"Kolaka","type":"Kabupaten","zip":"93511","prov_id":"30"},{"id":"199","name":"Kolaka Utara","type":"Kabupaten","zip":"93911","prov_id":"30"},{"id":"200","name":"Konawe","type":"Kabupaten","zip":"93411","prov_id":"30"},{"id":"201","name":"Konawe Selatan","type":"Kabupaten","zip":"93811","prov_id":"30"},{"id":"202","name":"Konawe Utara","type":"Kabupaten","zip":"93311","prov_id":"30"},{"id":"203","name":"Kotabaru","type":"Kabupaten","zip":"72119","prov_id":"13"},{"id":"204","name":"Kotamobagu","type":"Kota","zip":"95711","prov_id":"31"},{"id":"205","name":"Kotawaringin Barat","type":"Kabupaten","zip":"74119","prov_id":"14"},{"id":"206","name":"Kotawaringin Timur","type":"Kabupaten","zip":"74364","prov_id":"14"},{"id":"207","name":"Kuantan Singingi","type":"Kabupaten","zip":"29519","prov_id":"26"},{"id":"208","name":"Kubu Raya","type":"Kabupaten","zip":"78311","prov_id":"12"},{"id":"209","name":"Kudus","type":"Kabupaten","zip":"59311","prov_id":"10"},{"id":"210","name":"Kulon Progo","type":"Kabupaten","zip":"55611","prov_id":"5"},{"id":"211","name":"Kuningan","type":"Kabupaten","zip":"45511","prov_id":"9"},{"id":"212","name":"Kupang","type":"Kabupaten","zip":"85362","prov_id":"23"},{"id":"213","name":"Kupang","type":"Kota","zip":"85119","prov_id":"23"},{"id":"214","name":"Kutai Barat","type":"Kabupaten","zip":"75711","prov_id":"15"},{"id":"215","name":"Kutai Kartanegara","type":"Kabupaten","zip":"75511","prov_id":"15"},{"id":"216","name":"Kutai Timur","type":"Kabupaten","zip":"75611","prov_id":"15"},{"id":"217","name":"Labuhan Batu","type":"Kabupaten","zip":"21412","prov_id":"34"},{"id":"218","name":"Labuhan Batu Selatan","type":"Kabupaten","zip":"21511","prov_id":"34"},{"id":"219","name":"Labuhan Batu Utara","type":"Kabupaten","zip":"21711","prov_id":"34"},{"id":"220","name":"Lahat","type":"Kabupaten","zip":"31419","prov_id":"33"},{"id":"221","name":"Lamandau","type":"Kabupaten","zip":"74611","prov_id":"14"},{"id":"222","name":"Lamongan","type":"Kabupaten","zip":"64125","prov_id":"11"},{"id":"223","name":"Lampung Barat","type":"Kabupaten","zip":"34814","prov_id":"18"},{"id":"224","name":"Lampung Selatan","type":"Kabupaten","zip":"35511","prov_id":"18"},{"id":"225","name":"Lampung Tengah","type":"Kabupaten","zip":"34212","prov_id":"18"},{"id":"226","name":"Lampung Timur","type":"Kabupaten","zip":"34319","prov_id":"18"},{"id":"227","name":"Lampung Utara","type":"Kabupaten","zip":"34516","prov_id":"18"},{"id":"228","name":"Landak","type":"Kabupaten","zip":"78319","prov_id":"12"},{"id":"229","name":"Langkat","type":"Kabupaten","zip":"20811","prov_id":"34"},{"id":"230","name":"Langsa","type":"Kota","zip":"24412","prov_id":"21"},{"id":"231","name":"Lanny Jaya","type":"Kabupaten","zip":"99531","prov_id":"24"},{"id":"232","name":"Lebak","type":"Kabupaten","zip":"42319","prov_id":"3"},{"id":"233","name":"Lebong","type":"Kabupaten","zip":"39264","prov_id":"4"},{"id":"234","name":"Lembata","type":"Kabupaten","zip":"86611","prov_id":"23"},{"id":"235","name":"Lhokseumawe","type":"Kota","zip":"24352","prov_id":"21"},{"id":"236","name":"Lima Puluh Koto\/Kota","type":"Kabupaten","zip":"26671","prov_id":"32"},{"id":"237","name":"Lingga","type":"Kabupaten","zip":"29811","prov_id":"17"},{"id":"238","name":"Lombok Barat","type":"Kabupaten","zip":"83311","prov_id":"22"},{"id":"239","name":"Lombok Tengah","type":"Kabupaten","zip":"83511","prov_id":"22"},{"id":"240","name":"Lombok Timur","type":"Kabupaten","zip":"83612","prov_id":"22"},{"id":"241","name":"Lombok Utara","type":"Kabupaten","zip":"83711","prov_id":"22"},{"id":"242","name":"Lubuk Linggau","type":"Kota","zip":"31614","prov_id":"33"},{"id":"243","name":"Lumajang","type":"Kabupaten","zip":"67319","prov_id":"11"},{"id":"244","name":"Luwu","type":"Kabupaten","zip":"91994","prov_id":"28"},{"id":"245","name":"Luwu Timur","type":"Kabupaten","zip":"92981","prov_id":"28"},{"id":"246","name":"Luwu Utara","type":"Kabupaten","zip":"92911","prov_id":"28"},{"id":"247","name":"Madiun","type":"Kabupaten","zip":"63153","prov_id":"11"},{"id":"248","name":"Madiun","type":"Kota","zip":"63122","prov_id":"11"},{"id":"249","name":"Magelang","type":"Kabupaten","zip":"56519","prov_id":"10"},{"id":"250","name":"Magelang","type":"Kota","zip":"56133","prov_id":"10"},{"id":"251","name":"Magetan","type":"Kabupaten","zip":"63314","prov_id":"11"},{"id":"252","name":"Majalengka","type":"Kabupaten","zip":"45412","prov_id":"9"},{"id":"253","name":"Majene","type":"Kabupaten","zip":"91411","prov_id":"27"},{"id":"254","name":"Makassar","type":"Kota","zip":"90111","prov_id":"28"},{"id":"255","name":"Malang","type":"Kabupaten","zip":"65163","prov_id":"11"},{"id":"256","name":"Malang","type":"Kota","zip":"65112","prov_id":"11"},{"id":"257","name":"Malinau","type":"Kabupaten","zip":"77511","prov_id":"16"},{"id":"258","name":"Maluku Barat Daya","type":"Kabupaten","zip":"97451","prov_id":"19"},{"id":"259","name":"Maluku Tengah","type":"Kabupaten","zip":"97513","prov_id":"19"},{"id":"260","name":"Maluku Tenggara","type":"Kabupaten","zip":"97651","prov_id":"19"},{"id":"261","name":"Maluku Tenggara Barat","type":"Kabupaten","zip":"97465","prov_id":"19"},{"id":"262","name":"Mamasa","type":"Kabupaten","zip":"91362","prov_id":"27"},{"id":"263","name":"Mamberamo Raya","type":"Kabupaten","zip":"99381","prov_id":"24"},{"id":"264","name":"Mamberamo Tengah","type":"Kabupaten","zip":"99553","prov_id":"24"},{"id":"265","name":"Mamuju","type":"Kabupaten","zip":"91519","prov_id":"27"},{"id":"266","name":"Mamuju Utara","type":"Kabupaten","zip":"91571","prov_id":"27"},{"id":"267","name":"Manado","type":"Kota","zip":"95247","prov_id":"31"},{"id":"268","name":"Mandailing Natal","type":"Kabupaten","zip":"22916","prov_id":"34"},{"id":"269","name":"Manggarai","type":"Kabupaten","zip":"86551","prov_id":"23"},{"id":"270","name":"Manggarai Barat","type":"Kabupaten","zip":"86711","prov_id":"23"},{"id":"271","name":"Manggarai Timur","type":"Kabupaten","zip":"86811","prov_id":"23"},{"id":"272","name":"Manokwari","type":"Kabupaten","zip":"98311","prov_id":"25"},{"id":"273","name":"Manokwari Selatan","type":"Kabupaten","zip":"98355","prov_id":"25"},{"id":"274","name":"Mappi","type":"Kabupaten","zip":"99853","prov_id":"24"},{"id":"275","name":"Maros","type":"Kabupaten","zip":"90511","prov_id":"28"},{"id":"276","name":"Mataram","type":"Kota","zip":"83131","prov_id":"22"},{"id":"277","name":"Maybrat","type":"Kabupaten","zip":"98051","prov_id":"25"},{"id":"278","name":"Medan","type":"Kota","zip":"20228","prov_id":"34"},{"id":"279","name":"Melawi","type":"Kabupaten","zip":"78619","prov_id":"12"},{"id":"280","name":"Merangin","type":"Kabupaten","zip":"37319","prov_id":"8"},{"id":"281","name":"Merauke","type":"Kabupaten","zip":"99613","prov_id":"24"},{"id":"282","name":"Mesuji","type":"Kabupaten","zip":"34911","prov_id":"18"},{"id":"283","name":"Metro","type":"Kota","zip":"34111","prov_id":"18"},{"id":"284","name":"Mimika","type":"Kabupaten","zip":"99962","prov_id":"24"},{"id":"285","name":"Minahasa","type":"Kabupaten","zip":"95614","prov_id":"31"},{"id":"286","name":"Minahasa Selatan","type":"Kabupaten","zip":"95914","prov_id":"31"},{"id":"287","name":"Minahasa Tenggara","type":"Kabupaten","zip":"95995","prov_id":"31"},{"id":"288","name":"Minahasa Utara","type":"Kabupaten","zip":"95316","prov_id":"31"},{"id":"289","name":"Mojokerto","type":"Kabupaten","zip":"61382","prov_id":"11"},{"id":"290","name":"Mojokerto","type":"Kota","zip":"61316","prov_id":"11"},{"id":"291","name":"Morowali","type":"Kabupaten","zip":"94911","prov_id":"29"},{"id":"292","name":"Muara Enim","type":"Kabupaten","zip":"31315","prov_id":"33"},{"id":"293","name":"Muaro Jambi","type":"Kabupaten","zip":"36311","prov_id":"8"},{"id":"294","name":"Muko Muko","type":"Kabupaten","zip":"38715","prov_id":"4"},{"id":"295","name":"Muna","type":"Kabupaten","zip":"93611","prov_id":"30"},{"id":"296","name":"Murung Raya","type":"Kabupaten","zip":"73911","prov_id":"14"},{"id":"297","name":"Musi Banyuasin","type":"Kabupaten","zip":"30719","prov_id":"33"},{"id":"298","name":"Musi Rawas","type":"Kabupaten","zip":"31661","prov_id":"33"},{"id":"299","name":"Nabire","type":"Kabupaten","zip":"98816","prov_id":"24"},{"id":"300","name":"Nagan Raya","type":"Kabupaten","zip":"23674","prov_id":"21"},{"id":"301","name":"Nagekeo","type":"Kabupaten","zip":"86911","prov_id":"23"},{"id":"302","name":"Natuna","type":"Kabupaten","zip":"29711","prov_id":"17"},{"id":"303","name":"Nduga","type":"Kabupaten","zip":"99541","prov_id":"24"},{"id":"304","name":"Ngada","type":"Kabupaten","zip":"86413","prov_id":"23"},{"id":"305","name":"Nganjuk","type":"Kabupaten","zip":"64414","prov_id":"11"},{"id":"306","name":"Ngawi","type":"Kabupaten","zip":"63219","prov_id":"11"},{"id":"307","name":"Nias","type":"Kabupaten","zip":"22876","prov_id":"34"},{"id":"308","name":"Nias Barat","type":"Kabupaten","zip":"22895","prov_id":"34"},{"id":"309","name":"Nias Selatan","type":"Kabupaten","zip":"22865","prov_id":"34"},{"id":"310","name":"Nias Utara","type":"Kabupaten","zip":"22856","prov_id":"34"},{"id":"311","name":"Nunukan","type":"Kabupaten","zip":"77421","prov_id":"16"},{"id":"312","name":"Ogan Ilir","type":"Kabupaten","zip":"30811","prov_id":"33"},{"id":"313","name":"Ogan Komering Ilir","type":"Kabupaten","zip":"30618","prov_id":"33"},{"id":"314","name":"Ogan Komering Ulu","type":"Kabupaten","zip":"32112","prov_id":"33"},{"id":"315","name":"Ogan Komering Ulu Selatan","type":"Kabupaten","zip":"32211","prov_id":"33"},{"id":"316","name":"Ogan Komering Ulu Timur","type":"Kabupaten","zip":"32312","prov_id":"33"},{"id":"317","name":"Pacitan","type":"Kabupaten","zip":"63512","prov_id":"11"},{"id":"318","name":"Padang","type":"Kota","zip":"25112","prov_id":"32"},{"id":"319","name":"Padang Lawas","type":"Kabupaten","zip":"22763","prov_id":"34"},{"id":"320","name":"Padang Lawas Utara","type":"Kabupaten","zip":"22753","prov_id":"34"},{"id":"321","name":"Padang Panjang","type":"Kota","zip":"27122","prov_id":"32"},{"id":"322","name":"Padang Pariaman","type":"Kabupaten","zip":"25583","prov_id":"32"},{"id":"323","name":"Padang Sidempuan","type":"Kota","zip":"22727","prov_id":"34"},{"id":"324","name":"Pagar Alam","type":"Kota","zip":"31512","prov_id":"33"},{"id":"325","name":"Pakpak Bharat","type":"Kabupaten","zip":"22272","prov_id":"34"},{"id":"326","name":"Palangka Raya","type":"Kota","zip":"73112","prov_id":"14"},{"id":"327","name":"Palembang","type":"Kota","zip":"30111","prov_id":"33"},{"id":"328","name":"Palopo","type":"Kota","zip":"91911","prov_id":"28"},{"id":"329","name":"Palu","type":"Kota","zip":"94111","prov_id":"29"},{"id":"330","name":"Pamekasan","type":"Kabupaten","zip":"69319","prov_id":"11"},{"id":"331","name":"Pandeglang","type":"Kabupaten","zip":"42212","prov_id":"3"},{"id":"332","name":"Pangandaran","type":"Kabupaten","zip":"46511","prov_id":"9"},{"id":"333","name":"Pangkajene Kepulauan","type":"Kabupaten","zip":"90611","prov_id":"28"},{"id":"334","name":"Pangkal Pinang","type":"Kota","zip":"33115","prov_id":"2"},{"id":"335","name":"Paniai","type":"Kabupaten","zip":"98765","prov_id":"24"},{"id":"336","name":"Parepare","type":"Kota","zip":"91123","prov_id":"28"},{"id":"337","name":"Pariaman","type":"Kota","zip":"25511","prov_id":"32"},{"id":"338","name":"Parigi Moutong","type":"Kabupaten","zip":"94411","prov_id":"29"},{"id":"339","name":"Pasaman","type":"Kabupaten","zip":"26318","prov_id":"32"},{"id":"340","name":"Pasaman Barat","type":"Kabupaten","zip":"26511","prov_id":"32"},{"id":"341","name":"Paser","type":"Kabupaten","zip":"76211","prov_id":"15"},{"id":"342","name":"Pasuruan","type":"Kabupaten","zip":"67153","prov_id":"11"},{"id":"343","name":"Pasuruan","type":"Kota","zip":"67118","prov_id":"11"},{"id":"344","name":"Pati","type":"Kabupaten","zip":"59114","prov_id":"10"},{"id":"345","name":"Payakumbuh","type":"Kota","zip":"26213","prov_id":"32"},{"id":"346","name":"Pegunungan Arfak","type":"Kabupaten","zip":"98354","prov_id":"25"},{"id":"347","name":"Pegunungan Bintang","type":"Kabupaten","zip":"99573","prov_id":"24"},{"id":"348","name":"Pekalongan","type":"Kabupaten","zip":"51161","prov_id":"10"},{"id":"349","name":"Pekalongan","type":"Kota","zip":"51122","prov_id":"10"},{"id":"350","name":"Pekanbaru","type":"Kota","zip":"28112","prov_id":"26"},{"id":"351","name":"Pelalawan","type":"Kabupaten","zip":"28311","prov_id":"26"},{"id":"352","name":"Pemalang","type":"Kabupaten","zip":"52319","prov_id":"10"},{"id":"353","name":"Pematang Siantar","type":"Kota","zip":"21126","prov_id":"34"},{"id":"354","name":"Penajam Paser Utara","type":"Kabupaten","zip":"76311","prov_id":"15"},{"id":"355","name":"Pesawaran","type":"Kabupaten","zip":"35312","prov_id":"18"},{"id":"356","name":"Pesisir Barat","type":"Kabupaten","zip":"35974","prov_id":"18"},{"id":"357","name":"Pesisir Selatan","type":"Kabupaten","zip":"25611","prov_id":"32"},{"id":"358","name":"Pidie","type":"Kabupaten","zip":"24116","prov_id":"21"},{"id":"359","name":"Pidie Jaya","type":"Kabupaten","zip":"24186","prov_id":"21"},{"id":"360","name":"Pinrang","type":"Kabupaten","zip":"91251","prov_id":"28"},{"id":"361","name":"Pohuwato","type":"Kabupaten","zip":"96419","prov_id":"7"},{"id":"362","name":"Polewali Mandar","type":"Kabupaten","zip":"91311","prov_id":"27"},{"id":"363","name":"Ponorogo","type":"Kabupaten","zip":"63411","prov_id":"11"},{"id":"364","name":"Pontianak","type":"Kabupaten","zip":"78971","prov_id":"12"},{"id":"365","name":"Pontianak","type":"Kota","zip":"78112","prov_id":"12"},{"id":"366","name":"Poso","type":"Kabupaten","zip":"94615","prov_id":"29"},{"id":"367","name":"Prabumulih","type":"Kota","zip":"31121","prov_id":"33"},{"id":"368","name":"Pringsewu","type":"Kabupaten","zip":"35719","prov_id":"18"},{"id":"369","name":"Probolinggo","type":"Kabupaten","zip":"67282","prov_id":"11"},{"id":"370","name":"Probolinggo","type":"Kota","zip":"67215","prov_id":"11"},{"id":"371","name":"Pulang Pisau","type":"Kabupaten","zip":"74811","prov_id":"14"},{"id":"372","name":"Pulau Morotai","type":"Kabupaten","zip":"97771","prov_id":"20"},{"id":"373","name":"Puncak","type":"Kabupaten","zip":"98981","prov_id":"24"},{"id":"374","name":"Puncak Jaya","type":"Kabupaten","zip":"98979","prov_id":"24"},{"id":"375","name":"Purbalingga","type":"Kabupaten","zip":"53312","prov_id":"10"},{"id":"376","name":"Purwakarta","type":"Kabupaten","zip":"41119","prov_id":"9"},{"id":"377","name":"Purworejo","type":"Kabupaten","zip":"54111","prov_id":"10"},{"id":"378","name":"Raja Ampat","type":"Kabupaten","zip":"98489","prov_id":"25"},{"id":"379","name":"Rejang Lebong","type":"Kabupaten","zip":"39112","prov_id":"4"},{"id":"380","name":"Rembang","type":"Kabupaten","zip":"59219","prov_id":"10"},{"id":"381","name":"Rokan Hilir","type":"Kabupaten","zip":"28992","prov_id":"26"},{"id":"382","name":"Rokan Hulu","type":"Kabupaten","zip":"28511","prov_id":"26"},{"id":"383","name":"Rote Ndao","type":"Kabupaten","zip":"85982","prov_id":"23"},{"id":"384","name":"Sabang","type":"Kota","zip":"23512","prov_id":"21"},{"id":"385","name":"Sabu Raijua","type":"Kabupaten","zip":"85391","prov_id":"23"},{"id":"386","name":"Salatiga","type":"Kota","zip":"50711","prov_id":"10"},{"id":"387","name":"Samarinda","type":"Kota","zip":"75133","prov_id":"15"},{"id":"388","name":"Sambas","type":"Kabupaten","zip":"79453","prov_id":"12"},{"id":"389","name":"Samosir","type":"Kabupaten","zip":"22392","prov_id":"34"},{"id":"390","name":"Sampang","type":"Kabupaten","zip":"69219","prov_id":"11"},{"id":"391","name":"Sanggau","type":"Kabupaten","zip":"78557","prov_id":"12"},{"id":"392","name":"Sarmi","type":"Kabupaten","zip":"99373","prov_id":"24"},{"id":"393","name":"Sarolangun","type":"Kabupaten","zip":"37419","prov_id":"8"},{"id":"394","name":"Sawah Lunto","type":"Kota","zip":"27416","prov_id":"32"},{"id":"395","name":"Sekadau","type":"Kabupaten","zip":"79583","prov_id":"12"},{"id":"396","name":"Selayar (Kepulauan Selayar)","type":"Kabupaten","zip":"92812","prov_id":"28"},{"id":"397","name":"Seluma","type":"Kabupaten","zip":"38811","prov_id":"4"},{"id":"398","name":"Semarang","type":"Kabupaten","zip":"50511","prov_id":"10"},{"id":"399","name":"Semarang","type":"Kota","zip":"50135","prov_id":"10"},{"id":"400","name":"Seram Bagian Barat","type":"Kabupaten","zip":"97561","prov_id":"19"},{"id":"401","name":"Seram Bagian Timur","type":"Kabupaten","zip":"97581","prov_id":"19"},{"id":"402","name":"Serang","type":"Kabupaten","zip":"42182","prov_id":"3"},{"id":"403","name":"Serang","type":"Kota","zip":"42111","prov_id":"3"},{"id":"404","name":"Serdang Bedagai","type":"Kabupaten","zip":"20915","prov_id":"34"},{"id":"405","name":"Seruyan","type":"Kabupaten","zip":"74211","prov_id":"14"},{"id":"406","name":"Siak","type":"Kabupaten","zip":"28623","prov_id":"26"},{"id":"407","name":"Sibolga","type":"Kota","zip":"22522","prov_id":"34"},{"id":"408","name":"Sidenreng Rappang\/Rapang","type":"Kabupaten","zip":"91613","prov_id":"28"},{"id":"409","name":"Sidoarjo","type":"Kabupaten","zip":"61219","prov_id":"11"},{"id":"410","name":"Sigi","type":"Kabupaten","zip":"94364","prov_id":"29"},{"id":"411","name":"Sijunjung (Sawah Lunto Sijunjung)","type":"Kabupaten","zip":"27511","prov_id":"32"},{"id":"412","name":"Sikka","type":"Kabupaten","zip":"86121","prov_id":"23"},{"id":"413","name":"Simalungun","type":"Kabupaten","zip":"21162","prov_id":"34"},{"id":"414","name":"Simeulue","type":"Kabupaten","zip":"23891","prov_id":"21"},{"id":"415","name":"Singkawang","type":"Kota","zip":"79117","prov_id":"12"},{"id":"416","name":"Sinjai","type":"Kabupaten","zip":"92615","prov_id":"28"},{"id":"417","name":"Sintang","type":"Kabupaten","zip":"78619","prov_id":"12"},{"id":"418","name":"Situbondo","type":"Kabupaten","zip":"68316","prov_id":"11"},{"id":"419","name":"Sleman","type":"Kabupaten","zip":"55513","prov_id":"5"},{"id":"420","name":"Solok","type":"Kabupaten","zip":"27365","prov_id":"32"},{"id":"421","name":"Solok","type":"Kota","zip":"27315","prov_id":"32"},{"id":"422","name":"Solok Selatan","type":"Kabupaten","zip":"27779","prov_id":"32"},{"id":"423","name":"Soppeng","type":"Kabupaten","zip":"90812","prov_id":"28"},{"id":"424","name":"Sorong","type":"Kabupaten","zip":"98431","prov_id":"25"},{"id":"425","name":"Sorong","type":"Kota","zip":"98411","prov_id":"25"},{"id":"426","name":"Sorong Selatan","type":"Kabupaten","zip":"98454","prov_id":"25"},{"id":"427","name":"Sragen","type":"Kabupaten","zip":"57211","prov_id":"10"},{"id":"428","name":"Subang","type":"Kabupaten","zip":"41215","prov_id":"9"},{"id":"429","name":"Subulussalam","type":"Kota","zip":"24882","prov_id":"21"},{"id":"430","name":"Sukabumi","type":"Kabupaten","zip":"43311","prov_id":"9"},{"id":"431","name":"Sukabumi","type":"Kota","zip":"43114","prov_id":"9"},{"id":"432","name":"Sukamara","type":"Kabupaten","zip":"74712","prov_id":"14"},{"id":"433","name":"Sukoharjo","type":"Kabupaten","zip":"57514","prov_id":"10"},{"id":"434","name":"Sumba Barat","type":"Kabupaten","zip":"87219","prov_id":"23"},{"id":"435","name":"Sumba Barat Daya","type":"Kabupaten","zip":"87453","prov_id":"23"},{"id":"436","name":"Sumba Tengah","type":"Kabupaten","zip":"87358","prov_id":"23"},{"id":"437","name":"Sumba Timur","type":"Kabupaten","zip":"87112","prov_id":"23"},{"id":"438","name":"Sumbawa","type":"Kabupaten","zip":"84315","prov_id":"22"},{"id":"439","name":"Sumbawa Barat","type":"Kabupaten","zip":"84419","prov_id":"22"},{"id":"440","name":"Sumedang","type":"Kabupaten","zip":"45326","prov_id":"9"},{"id":"441","name":"Sumenep","type":"Kabupaten","zip":"69413","prov_id":"11"},{"id":"442","name":"Sungaipenuh","type":"Kota","zip":"37113","prov_id":"8"},{"id":"443","name":"Supiori","type":"Kabupaten","zip":"98164","prov_id":"24"},{"id":"444","name":"Surabaya","type":"Kota","zip":"60119","prov_id":"11"},{"id":"445","name":"Surakarta (Solo)","type":"Kota","zip":"57113","prov_id":"10"},{"id":"446","name":"Tabalong","type":"Kabupaten","zip":"71513","prov_id":"13"},{"id":"447","name":"Tabanan","type":"Kabupaten","zip":"82119","prov_id":"1"},{"id":"448","name":"Takalar","type":"Kabupaten","zip":"92212","prov_id":"28"},{"id":"449","name":"Tambrauw","type":"Kabupaten","zip":"98475","prov_id":"25"},{"id":"450","name":"Tana Tidung","type":"Kabupaten","zip":"77611","prov_id":"16"},{"id":"451","name":"Tana Toraja","type":"Kabupaten","zip":"91819","prov_id":"28"},{"id":"452","name":"Tanah Bumbu","type":"Kabupaten","zip":"72211","prov_id":"13"},{"id":"453","name":"Tanah Datar","type":"Kabupaten","zip":"27211","prov_id":"32"},{"id":"454","name":"Tanah Laut","type":"Kabupaten","zip":"70811","prov_id":"13"},{"id":"455","name":"Tangerang","type":"Kabupaten","zip":"15914","prov_id":"3"},{"id":"456","name":"Tangerang","type":"Kota","zip":"15111","prov_id":"3"},{"id":"457","name":"Tangerang Selatan","type":"Kota","zip":"15332","prov_id":"3"},{"id":"458","name":"Tanggamus","type":"Kabupaten","zip":"35619","prov_id":"18"},{"id":"459","name":"Tanjung Balai","type":"Kota","zip":"21321","prov_id":"34"},{"id":"460","name":"Tanjung Jabung Barat","type":"Kabupaten","zip":"36513","prov_id":"8"},{"id":"461","name":"Tanjung Jabung Timur","type":"Kabupaten","zip":"36719","prov_id":"8"},{"id":"462","name":"Tanjung Pinang","type":"Kota","zip":"29111","prov_id":"17"},{"id":"463","name":"Tapanuli Selatan","type":"Kabupaten","zip":"22742","prov_id":"34"},{"id":"464","name":"Tapanuli Tengah","type":"Kabupaten","zip":"22611","prov_id":"34"},{"id":"465","name":"Tapanuli Utara","type":"Kabupaten","zip":"22414","prov_id":"34"},{"id":"466","name":"Tapin","type":"Kabupaten","zip":"71119","prov_id":"13"},{"id":"467","name":"Tarakan","type":"Kota","zip":"77114","prov_id":"16"},{"id":"468","name":"Tasikmalaya","type":"Kabupaten","zip":"46411","prov_id":"9"},{"id":"469","name":"Tasikmalaya","type":"Kota","zip":"46116","prov_id":"9"},{"id":"470","name":"Tebing Tinggi","type":"Kota","zip":"20632","prov_id":"34"},{"id":"471","name":"Tebo","type":"Kabupaten","zip":"37519","prov_id":"8"},{"id":"472","name":"Tegal","type":"Kabupaten","zip":"52419","prov_id":"10"},{"id":"473","name":"Tegal","type":"Kota","zip":"52114","prov_id":"10"},{"id":"474","name":"Teluk Bintuni","type":"Kabupaten","zip":"98551","prov_id":"25"},{"id":"475","name":"Teluk Wondama","type":"Kabupaten","zip":"98591","prov_id":"25"},{"id":"476","name":"Temanggung","type":"Kabupaten","zip":"56212","prov_id":"10"},{"id":"477","name":"Ternate","type":"Kota","zip":"97714","prov_id":"20"},{"id":"478","name":"Tidore Kepulauan","type":"Kota","zip":"97815","prov_id":"20"},{"id":"479","name":"Timor Tengah Selatan","type":"Kabupaten","zip":"85562","prov_id":"23"},{"id":"480","name":"Timor Tengah Utara","type":"Kabupaten","zip":"85612","prov_id":"23"},{"id":"481","name":"Toba Samosir","type":"Kabupaten","zip":"22316","prov_id":"34"},{"id":"482","name":"Tojo Una-Una","type":"Kabupaten","zip":"94683","prov_id":"29"},{"id":"483","name":"Toli-Toli","type":"Kabupaten","zip":"94542","prov_id":"29"},{"id":"484","name":"Tolikara","type":"Kabupaten","zip":"99411","prov_id":"24"},{"id":"485","name":"Tomohon","type":"Kota","zip":"95416","prov_id":"31"},{"id":"486","name":"Toraja Utara","type":"Kabupaten","zip":"91831","prov_id":"28"},{"id":"487","name":"Trenggalek","type":"Kabupaten","zip":"66312","prov_id":"11"},{"id":"488","name":"Tual","type":"Kota","zip":"97612","prov_id":"19"},{"id":"489","name":"Tuban","type":"Kabupaten","zip":"62319","prov_id":"11"},{"id":"490","name":"Tulang Bawang","type":"Kabupaten","zip":"34613","prov_id":"18"},{"id":"491","name":"Tulang Bawang Barat","type":"Kabupaten","zip":"34419","prov_id":"18"},{"id":"492","name":"Tulungagung","type":"Kabupaten","zip":"66212","prov_id":"11"},{"id":"493","name":"Wajo","type":"Kabupaten","zip":"90911","prov_id":"28"},{"id":"494","name":"Wakatobi","type":"Kabupaten","zip":"93791","prov_id":"30"},{"id":"495","name":"Waropen","type":"Kabupaten","zip":"98269","prov_id":"24"},{"id":"496","name":"Way Kanan","type":"Kabupaten","zip":"34711","prov_id":"18"},{"id":"497","name":"Wonogiri","type":"Kabupaten","zip":"57619","prov_id":"10"},{"id":"498","name":"Wonosobo","type":"Kabupaten","zip":"56311","prov_id":"10"},{"id":"499","name":"Yahukimo","type":"Kabupaten","zip":"99041","prov_id":"24"},{"id":"500","name":"Yalimo","type":"Kabupaten","zip":"99481","prov_id":"24"},{"id":"501","name":"Yogyakarta","type":"Kota","zip":"55111","prov_id":"5"}]